UMBRA-09                
1 60541U 24149CB  26177.22908542  .00018953  00000+0  92569-3 0  9990
2 60541  97.6976 264.5902 0001009 238.4610 121.6525 15.18308117102093
QPS-SAR-8 (AMATERU-IV)  
1 60542U 24149CC  26177.17435877  .00006898  00000+0  50060-3 0  9996
2 60542  97.6660 256.2482 0004213  88.2896 271.8812 15.04213210101621
ARCTIC WEATHER SATELLITE
1 60543U 24149CD  26177.15379243  .00000858  00000+0  95019-4 0  9993
2 60543  97.6799 247.3632 0003662  87.1439 273.0198 14.89795586100635
CAPELLA-15 (ACADIA-5)   
1 60544U 24149CE  26177.23986583  .00003989  00000+0  39487-3 0  9998
2 60544  97.6775 249.9166 0004262  51.9780 308.1823 14.92402735101209
HAWK-10B                
1 60545U 24149CF  26177.19596540  .00001220  00000+0  11232-3 0  9998
2 60545  97.6810 252.2988 0006468  68.7155 291.4757 14.96536677101332
ICEYE-X39               
1 60546U 24149CG  26177.14978905  .00003681  00000+0  30104-3 0  9995
2 60546  97.6760 254.0509 0006259  95.6168 264.5769 14.99945998101468
UMBRA-10                
1 60547U 24149CH  26177.22864546  .00017952  00000+0  87730-3 0  9993
2 60547  97.6981 264.6181 0000390 150.1660 209.9596 15.18300409102108
ICEYE-X33               
1 60548U 24149CJ  26177.16934360  .00005152  00000+0  40893-3 0  9997
2 60548  97.7311 256.2617 0002007  80.9186 279.2265 15.00938302101559
ICEYE-X40               
1 60549U 24149CK  26177.18686631  .00001040  00000+0  93045-4 0  9995
2 60549  97.6814 253.5387 0005847  55.4807 304.6967 14.97967634101426
SATELIOT_1              
1 60550U 24149CL  26177.17725877  .00001724  00000+0  15049-3 0  9998
2 60550  97.6760 252.9265 0008026  53.1392 307.0565 14.98106776101415
BRO-14                  
1 60551U 24149CM  26177.15700830  .00001692  00000+0  15513-3 0  9999
2 60551  97.6874 252.7735 0008166  73.6483 286.5636 14.96196801101332
SATELIOT_3              
1 60552U 24149CN  26177.15315268  .00002400  00000+0  20768-3 0  9993
2 60552  97.6816 253.7010 0006128  66.5548 293.6318 14.98087156101425
BRO-15                  
1 60553U 24149CP  26176.67139281  .00002117  00000+0  19287-3 0  9998
2 60553  97.6810 251.8906 0009036  64.5966 295.6189 14.96176222101278
UM5-RIBAT               
1 60554U 24149CQ  26176.80460112  .00003418  00000+0  27156-3 0  9993
2 60554  97.6629 254.4884 0002900  48.2667 311.8805 15.01119626101482
UM5-EOSAT               
1 60555U 24149CR  26176.70168339  .00004525  00000+0  35330-3 0  9992
2 60555  97.6740 255.3383 0009072  89.4302 270.7962 15.01595589101495
LASARSAT                
1 62391U 24247Q   26177.27700145  .00031954  00000+0  62540-3 0  9990
2 62391  44.9729 211.1163 0007200  26.2306 333.8948 15.46877465 84723
CROCUBE                 
1 62394U 24247T   26175.39308509  .00030725  00000+0  56517-3 0  9994
2 62394  44.9701 218.9251 0007226  18.8099 341.3058 15.48681185 84464
TEVEL2-4                
1 63213U 25052D   26177.17972366  .00021376  00000+0  63246-3 0  9995
2 63213  97.3903  73.5873 0004922  86.7303 273.4503 15.34912394 71491
TEVEL2-5                
1 63214U 25052E   26176.67964387  .00023328  00000+0  69414-3 0  9996
2 63214  97.3899  73.0315 0004860  88.8974 271.2826 15.34714855 71418
TEVEL2-6                
1 63215U 25052F   26177.21378326  .00021089  00000+0  62823-3 0  9999
2 63215  97.3902  73.5508 0004680  88.4049 271.7731 15.34701265 71491
TEVEL2-1                
1 63217U 25052H   26177.24597688  .00020561  00000+0  62319-3 0  9992
2 63217  97.3872  73.1969 0005000  96.2961 263.8851 15.34157117 71488
TEVEL2-3                
1 63218U 25052J   26176.65328305  .00022765  00000+0  68881-3 0  9993
2 63218  97.3880  72.6267 0004883  97.7388 262.4409 15.34191056 71394
TEVEL2-2                
1 63219U 25052K   26176.65921451  .00022535  00000+0  68291-3 0  9995
2 63219  97.3872  72.6125 0005033  97.8047 262.3767 15.34142651 71393
TEVEL2-9                
1 63237U 25052AD  26177.23542311  .00018670  00000+0  60234-3 0  9998
2 63237  97.3935  72.5449 0008281 106.5161 253.6991 15.32162878 71410
TEVEL2-7                
1 63238U 25052AE  26177.01679791  .00018531  00000+0  60368-3 0  9992
2 63238  97.3939  72.2388 0008375 107.4049 252.8109 15.31851265 71374
TEVEL2-8                
1 63239U 25052AF  26177.22110574  .00017980  00000+0  58597-3 0  9993
2 63239  97.3937  72.4192 0008384 107.6731 252.5427 15.31844407 71402
FORESAIL-1 PRIME        
1 66778U 25276DS  26177.02298748  .00005552  00000+0  27024-3 0  9993
2 66778  97.4201 250.1321 0003943  85.4112 274.7572 15.18776013 31741
