OBJECT_NAME,OBJECT_ID,EPOCH,MEAN_MOTION,ECCENTRICITY,INCLINATION,RA_OF_ASC_NODE,ARG_OF_PERICENTER,MEAN_ANOMALY,EPHEMERIS_TYPE,CLASSIFICATION_TYPE,NORAD_CAT_ID,ELEMENT_SET_NO,REV_AT_EPOCH,BSTAR,MEAN_MOTION_DOT,MEAN_MOTION_DDOT
UMBRA-09,2024-149CB,2026-06-26T05:29:52.980288,15.18308117,.00010093,97.6976,264.5902,238.4610,121.6525,0,U,60541,999,10209,.92569426E-3,.18953E-3,0
QPS-SAR-8 (AMATERU-IV),2024-149CC,2026-06-26T04:11:04.597728,15.04213210,.00042135,97.6660,256.2482,88.2896,271.8812,0,U,60542,999,10162,.50060122E-3,.6898E-4,0
ARCTIC WEATHER SATELLITE,2024-149CD,2026-06-26T03:41:27.665952,14.89795586,.00036629,97.6799,247.3632,87.1439,273.0198,0,U,60543,999,10063,.95019281E-4,.858E-5,0
CAPELLA-15 (ACADIA-5),2024-149CE,2026-06-26T05:45:24.407712,14.92402735,.00042621,97.6775,249.9166,51.9780,308.1823,0,U,60544,999,10120,.39487296E-3,.3989E-4,0
HAWK-10B,2024-149CF,2026-06-26T04:42:11.410560,14.96536677,.00064689,97.6810,252.2988,68.7155,291.4757,0,U,60545,999,10133,.11232421E-3,.122E-4,0
ICEYE-X39,2024-149CG,2026-06-26T03:35:41.773920,14.99945998,.00062595,97.6760,254.0509,95.6168,264.5769,0,U,60546,999,10146,.30103932E-3,.3681E-4,0
UMBRA-10,2024-149CH,2026-06-26T05:29:14.967744,15.18300409,.00003902,97.6981,264.6181,150.1660,209.9596,0,U,60547,999,10210,.87729592E-3,.17952E-3,0
ICEYE-X33,2024-149CJ,2026-06-26T04:03:51.287040,15.00938302,.00020077,97.7311,256.2617,80.9186,279.2265,0,U,60548,999,10155,.40893181E-3,.5152E-4,0
ICEYE-X40,2024-149CK,2026-06-26T04:29:05.249184,14.97967634,.00058478,97.6814,253.5387,55.4807,304.6967,0,U,60549,999,10142,.93044527E-4,.104E-4,0
SATELIOT_1,2024-149CL,2026-06-26T04:15:15.157728,14.98106776,.00080269,97.6760,252.9265,53.1392,307.0565,0,U,60550,999,10141,.15048959E-3,.1724E-4,0
BRO-14,2024-149CM,2026-06-26T03:46:05.517120,14.96196801,.00081665,97.6874,252.7735,73.6483,286.5636,0,U,60551,999,10133,.15512709E-3,.1692E-4,0
SATELIOT_3,2024-149CN,2026-06-26T03:40:32.391552,14.98087156,.00061286,97.6816,253.7010,66.5548,293.6318,0,U,60552,999,10142,.20767648E-3,.24E-4,0
BRO-15,2024-149CP,2026-06-25T16:06:48.338784,14.96176222,.00090368,97.6810,251.8906,64.5966,295.6189,0,U,60553,999,10127,.19286826E-3,.2117E-4,0
UM5-RIBAT,2024-149CQ,2026-06-25T19:18:37.536768,15.01119626,.00029004,97.6629,254.4884,48.2667,311.8805,0,U,60554,999,10148,.2715608E-3,.3418E-4,0
UM5-EOSAT,2024-149CR,2026-06-25T16:50:25.444896,15.01595589,.00090722,97.6740,255.3383,89.4302,270.7962,0,U,60555,999,10149,.35329645E-3,.4525E-4,0
LASARSAT,2024-247Q,2026-06-26T06:38:52.925280,15.46877465,.00072009,44.9729,211.1163,26.2306,333.8948,0,U,62391,999,8472,.62539585E-3,.31954E-3,0
CROCUBE,2024-247T,2026-06-24T09:26:02.551776,15.48681185,.00072263,44.9701,218.9251,18.8099,341.3058,0,U,62394,999,8446,.56516968E-3,.30725E-3,0
TEVEL2-4,2025-052D,2026-06-26T04:18:48.124224,15.34912394,.00049227,97.3903,73.5873,86.7303,273.4503,0,U,63213,999,7149,.63245947E-3,.21376E-3,0
TEVEL2-5,2025-052E,2026-06-25T16:18:41.230368,15.34714855,.00048604,97.3899,73.0315,88.8974,271.2826,0,U,63214,999,7141,.69414093E-3,.23328E-3,0
TEVEL2-6,2025-052F,2026-06-26T05:07:50.873664,15.34701265,.00046805,97.3902,73.5508,88.4049,271.7731,0,U,63215,999,7149,.62822602E-3,.21089E-3,0
TEVEL2-1,2025-052H,2026-06-26T05:54:12.402432,15.34157117,.00050007,97.3872,73.1969,96.2961,263.8851,0,U,63217,999,7148,.62319366E-3,.20561E-3,0
TEVEL2-3,2025-052J,2026-06-25T15:40:43.655520,15.34191056,.0004883,97.3880,72.6267,97.7388,262.4409,0,U,63218,999,7139,.68881177E-3,.22765E-3,0
TEVEL2-2,2025-052K,2026-06-25T15:49:16.133664,15.34142651,.00050331,97.3872,72.6125,97.8047,262.3767,0,U,63219,999,7139,.68291107E-3,.22535E-3,0
TEVEL2-9,2025-052AD,2026-06-26T05:39:00.556704,15.32162878,.00082819,97.3935,72.5449,106.5161,253.6991,0,U,63237,999,7141,.6023405E-3,.1867E-3,0
TEVEL2-7,2025-052AE,2026-06-26T00:24:11.339424,15.31851265,.00083752,97.3939,72.2388,107.4049,252.8109,0,U,63238,999,7137,.6036768E-3,.18531E-3,0
TEVEL2-8,2025-052AF,2026-06-26T05:18:23.535936,15.31844407,.00083849,97.3937,72.4192,107.6731,252.5427,0,U,63239,999,7140,.58597488E-3,.1798E-3,0
FORESAIL-1 PRIME,2025-276DS,2026-06-26T00:33:06.118272,15.18776013,.00039434,97.4201,250.1321,85.4112,274.7572,0,U,66778,999,3174,.27023523E-3,.5552E-4,0
